{
  "norad_id": 66406,
  "name": "STARLINK-34840",
  "history": [
    {
      "epoch": "2026-03-28T19:41:25.748160",
      "apogee_km": 476.1766380345671,
      "perigee_km": 474.22494449837086,
      "latitude_deg": -52.78199702322171,
      "longitude_deg": 179.36194239999168,
      "semi_major_axis_km": 6853.337791266469,
      "eccentricity": 0.00014239,
      "inclination_deg": 53.1596,
      "raan_deg": 128.0677,
      "arg_perigee_deg": 82.365,
      "mean_anomaly_deg": 277.7512,
      "mean_motion_rev_day": 15.30204782
    }
  ]
}